[
    {
        "OBJECT_NAME": "SL-16 R/B",
        "OBJECT_ID": "2000-006B",
        "EPOCH": "2026-06-06T14:36:47.505024",
        "MEAN_MOTION": 14.15837134,
        "ECCENTRICITY": 0.0015006,
        "INCLINATION": 71.0034,
        "RA_OF_ASC_NODE": 270.8671,
        "ARG_OF_PERICENTER": 39.8042,
        "MEAN_ANOMALY": 320.4179,
        "EPHEMERIS_TYPE": 0,
        "CLASSIFICATION_TYPE": "U",
        "NORAD_CAT_ID": 26070,
        "ELEMENT_SET_NO": 999,
        "REV_AT_EPOCH": 36114,
        "BSTAR": -4.9904e-05,
        "MEAN_MOTION_DOT": -1.46e-06,
        "MEAN_MOTION_DDOT": 0
    },
    {
        "OBJECT_NAME": "TITAN 4B R/B",
        "OBJECT_ID": "2000-047B",
        "EPOCH": "2026-06-06T22:14:40.092288",
        "MEAN_MOTION": 15.10137507,
        "ECCENTRICITY": 0.00455119,
        "INCLINATION": 67.9877,
        "RA_OF_ASC_NODE": 149.4526,
        "ARG_OF_PERICENTER": 297.4319,
        "MEAN_ANOMALY": 62.2205,
        "EPHEMERIS_TYPE": 0,
        "CLASSIFICATION_TYPE": "U",
        "NORAD_CAT_ID": 26474,
        "ELEMENT_SET_NO": 999,
        "REV_AT_EPOCH": 40638,
        "BSTAR": 0.00021838621,
        "MEAN_MOTION_DOT": 3.519e-05,
        "MEAN_MOTION_DDOT": 0
    },
    {
        "OBJECT_NAME": "ENVISAT",
        "OBJECT_ID": "2002-009A",
        "EPOCH": "2026-06-06T11:35:34.889280",
        "MEAN_MOTION": 14.39062351,
        "ECCENTRICITY": 0.00013298,
        "INCLINATION": 98.383,
        "RA_OF_ASC_NODE": 109.0406,
        "ARG_OF_PERICENTER": 91.0694,
        "MEAN_ANOMALY": 27.1263,
        "EPHEMERIS_TYPE": 0,
        "CLASSIFICATION_TYPE": "U",
        "NORAD_CAT_ID": 27386,
        "ELEMENT_SET_NO": 999,
        "REV_AT_EPOCH": 27194,
        "BSTAR": 5.0473411e-05,
        "MEAN_MOTION_DOT": 1.13e-06,
        "MEAN_MOTION_DDOT": 0
    },
    {
        "OBJECT_NAME": "IDEFIX & ARIANE 42P R/B",
        "OBJECT_ID": "2002-021B",
        "EPOCH": "2026-06-06T13:43:46.462656",
        "MEAN_MOTION": 14.31077154,
        "ECCENTRICITY": 0.0010642,
        "INCLINATION": 98.5941,
        "RA_OF_ASC_NODE": 95.1704,
        "ARG_OF_PERICENTER": 288.5791,
        "MEAN_ANOMALY": 71.4235,
        "EPHEMERIS_TYPE": 0,
        "CLASSIFICATION_TYPE": "U",
        "NORAD_CAT_ID": 27422,
        "ELEMENT_SET_NO": 999,
        "REV_AT_EPOCH": 25673,
        "BSTAR": 0.0001109,
        "MEAN_MOTION_DOT": 2.48e-06,
        "MEAN_MOTION_DDOT": 0
    },
    {
        "OBJECT_NAME": "AQUA",
        "OBJECT_ID": "2002-022A",
        "EPOCH": "2026-06-06T20:41:25.708704",
        "MEAN_MOTION": 14.6214237,
        "ECCENTRICITY": 0.00015068,
        "INCLINATION": 98.4272,
        "RA_OF_ASC_NODE": 126.9391,
        "ARG_OF_PERICENTER": 55.3541,
        "MEAN_ANOMALY": 29.1016,
        "EPHEMERIS_TYPE": 0,
        "CLASSIFICATION_TYPE": "U",
        "NORAD_CAT_ID": 27424,
        "ELEMENT_SET_NO": 999,
        "REV_AT_EPOCH": 28176,
        "BSTAR": 0.00018286171,
        "MEAN_MOTION_DOT": 8.7e-06,
        "MEAN_MOTION_DDOT": 0
    },
    {
        "OBJECT_NAME": "CZ-4B R/B",
        "OBJECT_ID": "2002-024C",
        "EPOCH": "2026-06-06T15:22:56.096256",
        "MEAN_MOTION": 14.14562687,
        "ECCENTRICITY": 0.00510073,
        "INCLINATION": 98.8703,
        "RA_OF_ASC_NODE": 210.5289,
        "ARG_OF_PERICENTER": 129.5946,
        "MEAN_ANOMALY": 344.9197,
        "EPHEMERIS_TYPE": 0,
        "CLASSIFICATION_TYPE": "U",
        "NORAD_CAT_ID": 27432,
        "ELEMENT_SET_NO": 999,
        "REV_AT_EPOCH": 24181,
        "BSTAR": 4.8237076e-05,
        "MEAN_MOTION_DOT": 5e-07,
        "MEAN_MOTION_DDOT": 0
    },
    {
        "OBJECT_NAME": "MIDORI II (ADEOS-II)",
        "OBJECT_ID": "2002-056A",
        "EPOCH": "2026-06-06T15:18:26.533440",
        "MEAN_MOTION": 14.29343868,
        "ECCENTRICITY": 0.00022117,
        "INCLINATION": 98.7873,
        "RA_OF_ASC_NODE": 116.8083,
        "ARG_OF_PERICENTER": 91.6714,
        "MEAN_ANOMALY": 268.4721,
        "EPHEMERIS_TYPE": 0,
        "CLASSIFICATION_TYPE": "U",
        "NORAD_CAT_ID": 27597,
        "ELEMENT_SET_NO": 999,
        "REV_AT_EPOCH": 22300,
        "BSTAR": 0.00013688203,
        "MEAN_MOTION_DOT": 3.03e-06,
        "MEAN_MOTION_DDOT": 0
    },
    {
        "OBJECT_NAME": "H-2A R/B",
        "OBJECT_ID": "2002-056E",
        "EPOCH": "2026-06-06T15:15:35.501184",
        "MEAN_MOTION": 14.3381757,
        "ECCENTRICITY": 0.0068876,
        "INCLINATION": 98.3308,
        "RA_OF_ASC_NODE": 114.695,
        "ARG_OF_PERICENTER": 256.5066,
        "MEAN_ANOMALY": 277.2195,
        "EPHEMERIS_TYPE": 0,
        "CLASSIFICATION_TYPE": "U",
        "NORAD_CAT_ID": 27601,
        "ELEMENT_SET_NO": 999,
        "REV_AT_EPOCH": 22685,
        "BSTAR": 9.5605e-05,
        "MEAN_MOTION_DOT": 2.31e-06,
        "MEAN_MOTION_DDOT": 0
    },
    {
        "OBJECT_NAME": "CZ-4B R/B",
        "OBJECT_ID": "2003-049C",
        "EPOCH": "2026-06-06T17:02:56.511456",
        "MEAN_MOTION": 14.55093185,
        "ECCENTRICITY": 0.00473527,
        "INCLINATION": 98.6896,
        "RA_OF_ASC_NODE": 156.1399,
        "ARG_OF_PERICENTER": 321.2391,
        "MEAN_ANOMALY": 38.5411,
        "EPHEMERIS_TYPE": 0,
        "CLASSIFICATION_TYPE": "U",
        "NORAD_CAT_ID": 28059,
        "ELEMENT_SET_NO": 999,
        "REV_AT_EPOCH": 19954,
        "BSTAR": 9.4927892e-05,
        "MEAN_MOTION_DOT": 3.64e-06,
        "MEAN_MOTION_DDOT": 0
    },
    {
        "OBJECT_NAME": "CZ-2C R/B",
        "OBJECT_ID": "2004-012C",
        "EPOCH": "2026-06-06T09:06:39.791808",
        "MEAN_MOTION": 15.76941093,
        "ECCENTRICITY": 0.00088254,
        "INCLINATION": 97.7089,
        "RA_OF_ASC_NODE": 231.8036,
        "ARG_OF_PERICENTER": 332.1519,
        "MEAN_ANOMALY": 27.9272,
        "EPHEMERIS_TYPE": 0,
        "CLASSIFICATION_TYPE": "U",
        "NORAD_CAT_ID": 28222,
        "ELEMENT_SET_NO": 999,
        "REV_AT_EPOCH": 21819,
        "BSTAR": 0.00075160432,
        "MEAN_MOTION_DOT": 0.00122901,
        "MEAN_MOTION_DDOT": 0
    },
    {
        "OBJECT_NAME": "SL-16 R/B",
        "OBJECT_ID": "2004-021B",
        "EPOCH": "2026-06-06T09:54:49.369824",
        "MEAN_MOTION": 14.14612822,
        "ECCENTRICITY": 0.00074769,
        "INCLINATION": 71.0024,
        "RA_OF_ASC_NODE": 46.3008,
        "ARG_OF_PERICENTER": 267.0875,
        "MEAN_ANOMALY": 92.9392,
        "EPHEMERIS_TYPE": 0,
        "CLASSIFICATION_TYPE": "U",
        "NORAD_CAT_ID": 28353,
        "ELEMENT_SET_NO": 999,
        "REV_AT_EPOCH": 13538,
        "BSTAR": -6.1348062e-05,
        "MEAN_MOTION_DOT": -1.66e-06,
        "MEAN_MOTION_DDOT": 0
    },
    {
        "OBJECT_NAME": "CZ-4B R/B",
        "OBJECT_ID": "2004-035C",
        "EPOCH": "2026-06-06T16:07:53.240736",
        "MEAN_MOTION": 15.30469234,
        "ECCENTRICITY": 0.00312368,
        "INCLINATION": 97.3371,
        "RA_OF_ASC_NODE": 190.8652,
        "ARG_OF_PERICENTER": 15.7592,
        "MEAN_ANOMALY": 344.4614,
        "EPHEMERIS_TYPE": 0,
        "CLASSIFICATION_TYPE": "U",
        "NORAD_CAT_ID": 28415,
        "ELEMENT_SET_NO": 999,
        "REV_AT_EPOCH": 19351,
        "BSTAR": 0.00030615196,
        "MEAN_MOTION_DOT": 9.079e-05,
        "MEAN_MOTION_DDOT": 0
    },
    {
        "OBJECT_NAME": "CZ-2C R/B",
        "OBJECT_ID": "2004-046B",
        "EPOCH": "2026-06-06T16:10:32.370528",
        "MEAN_MOTION": 14.27024295,
        "ECCENTRICITY": 0.01381166,
        "INCLINATION": 98.1952,
        "RA_OF_ASC_NODE": 67.1111,
        "ARG_OF_PERICENTER": 251.5842,
        "MEAN_ANOMALY": 107.0282,
        "EPHEMERIS_TYPE": 0,
        "CLASSIFICATION_TYPE": "U",
        "NORAD_CAT_ID": 28480,
        "ELEMENT_SET_NO": 999,
        "REV_AT_EPOCH": 12119,
        "BSTAR": 5.0479592e-05,
        "MEAN_MOTION_DOT": 9.4e-07,
        "MEAN_MOTION_DDOT": 0
    }
]